{
  "type": "FeatureCollection",
  "features": [
    {
      "type": "Feature",
      "properties": {
        "norad_id": 27954,
        "name": "GALAXY 13 (HORIZONS-1)",
        "group": "intelsat",
        "lat": -0.010635291246418536,
        "lon": -94.32715582015956,
        "alt_km": 35776.90309108168,
        "timestamp": "2025-12-06T22:38:42.402351+00:00",
        "meta_object_name": "GALAXY 13 (HORIZONS-1)",
        "meta_object_id": "2003-044A",
        "meta_epoch": "2025-12-06T13:21:49.947840",
        "meta_mean_motion": 1.00273931,
        "meta_eccentricity": 0.00020643,
        "meta_inclination": 0.9195,
        "meta_ra_of_asc_node": 86.5516,
        "meta_arg_of_pericenter": 166.404,
        "meta_mean_anomaly": 233.1174,
        "meta_ephemeris_type": 0,
        "meta_classification_type": "U",
        "meta_norad_cat_id": 27954,
        "meta_element_set_no": 999,
        "meta_rev_at_epoch": 4464,
        "meta_bstar": 0,
        "meta_mean_motion_dot": 1.39e-06,
        "meta_mean_motion_ddot": 0,
        "tle_line1": "1 27954U 03044A   25340.55682810  .00000139  00000+0  00000+0 0  9998",
        "tle_line2": "2 27954   0.9195  86.5516 0002064 166.4040 233.1174  1.00273931 44642"
      },
      "geometry": {
        "type": "Point",
        "coordinates": [
          -94.32715582015956,
          -0.010635291246418536
        ]
      }
    },
    {
      "type": "Feature",
      "properties": {
        "norad_id": 28358,
        "name": "INTELSAT 10-02",
        "group": "intelsat",
        "lat": 0.010660896496231599,
        "lon": 54.661797995845234,
        "alt_km": 35789.58888633744,
        "timestamp": "2025-12-06T22:38:42.402363+00:00",
        "meta_object_name": "INTELSAT 10-02",
        "meta_object_id": "2004-022A",
        "meta_epoch": "2025-12-06T10:19:38.595648",
        "meta_mean_motion": 1.00270506,
        "meta_eccentricity": 0.00011653,
        "meta_inclination": 0.0389,
        "meta_ra_of_asc_node": 75.8915,
        "meta_arg_of_pericenter": 208.9538,
        "meta_mean_anomaly": 304.5467,
        "meta_ephemeris_type": 0,
        "meta_classification_type": "U",
        "meta_norad_cat_id": 28358,
        "meta_element_set_no": 999,
        "meta_rev_at_epoch": 7862,
        "meta_bstar": 0,
        "meta_mean_motion_dot": -4e-08,
        "meta_mean_motion_ddot": 0,
        "tle_line1": "1 28358U 04022A   25340.43030782 -.00000004  00000+0  00000+0 0  9998",
        "tle_line2": "2 28358   0.0389  75.8915 0001165 208.9538 304.5467  1.00270506 78624"
      },
      "geometry": {
        "type": "Point",
        "coordinates": [
          54.661797995845234,
          0.010660896496231599
        ]
      }
    },
    {
      "type": "Feature",
      "properties": {
        "norad_id": 28626,
        "name": "XM-3 (RHYTHM)",
        "group": "intelsat",
        "lat": 0.12329024433609619,
        "lon": -162.54067885550162,
        "alt_km": 36163.41982846313,
        "timestamp": "2025-12-06T22:38:42.402375+00:00",
        "meta_object_name": "XM-3 (RHYTHM)",
        "meta_object_id": "2005-008A",
        "meta_epoch": "2025-12-06T13:53:51.604800",
        "meta_mean_motion": 0.9895453,
        "meta_eccentricity": 0.00011627,
        "meta_inclination": 0.1582,
        "meta_ra_of_asc_node": 81.053,
        "meta_arg_of_pericenter": 259.8343,
        "meta_mean_anomaly": 86.7474,
        "meta_ephemeris_type": 0,
        "meta_classification_type": "U",
        "meta_norad_cat_id": 28626,
        "meta_element_set_no": 999,
        "meta_rev_at_epoch": 4068,
        "meta_bstar": 0,
        "meta_mean_motion_dot": -2.68e-06,
        "meta_mean_motion_ddot": 0,
        "tle_line1": "1 28626U 05008A   25340.57906950 -.00000268  00000+0  00000+0 0  9997",
        "tle_line2": "2 28626   0.1582  81.0530 0001162 259.8343  86.7474  0.98954530 40680"
      },
      "geometry": {
        "type": "Point",
        "coordinates": [
          -162.54067885550162,
          0.12329024433609619
        ]
      }
    },
    {
      "type": "Feature",
      "properties": {
        "norad_id": 28659,
        "name": "DIRECTV 8",
        "group": "intelsat",
        "lat": -0.019811242518929656,
        "lon": -63.38258005481798,
        "alt_km": 35775.563130481765,
        "timestamp": "2025-12-06T22:38:42.402387+00:00",
        "meta_object_name": "DIRECTV 8",
        "meta_object_id": "2005-019A",
        "meta_epoch": "2025-12-06T10:44:58.297344",
        "meta_mean_motion": 1.00271168,
        "meta_eccentricity": 0.00032739,
        "meta_inclination": 0.0058,
        "meta_ra_of_asc_node": 28.2318,
        "meta_arg_of_pericenter": 228.664,
        "meta_mean_anomaly": 220.7862,
        "meta_ephemeris_type": 0,
        "meta_classification_type": "U",
        "meta_norad_cat_id": 28659,
        "meta_element_set_no": 999,
        "meta_rev_at_epoch": 7514,
        "meta_bstar": 0,
        "meta_mean_motion_dot": 8e-08,
        "meta_mean_motion_ddot": 0,
        "tle_line1": "1 28659U 05019A   25340.44789696  .00000008  00000+0  00000+0 0  9998",
        "tle_line2": "2 28659   0.0058  28.2318 0003273 228.6640 220.7862  1.00271168 75142"
      },
      "geometry": {
        "type": "Point",
        "coordinates": [
          -63.38258005481798,
          -0.019811242518929656
        ]
      }
    },
    {
      "type": "Feature",
      "properties": {
        "norad_id": 28702,
        "name": "GALAXY 28 (G-28)",
        "group": "intelsat",
        "lat": -2.5608313321687493,
        "lon": -33.036874123252204,
        "alt_km": 35782.80201118455,
        "timestamp": "2025-12-06T22:38:42.402398+00:00",
        "meta_object_name": "GALAXY 28 (G-28)",
        "meta_object_id": "2005-022A",
        "meta_epoch": "2025-12-06T11:01:56.472096",
        "meta_mean_motion": 1.00271723,
        "meta_eccentricity": 0.00026451,
        "meta_inclination": 2.8026,
        "meta_ra_of_asc_node": 81.3552,
        "meta_arg_of_pericenter": 174.6698,
        "meta_mean_anomaly": 256.2716,
        "meta_ephemeris_type": 0,
        "meta_classification_type": "U",
        "meta_norad_cat_id": 28702,
        "meta_element_set_no": 999,
        "meta_rev_at_epoch": 5004,
        "meta_bstar": 0,
        "meta_mean_motion_dot": -1.81e-06,
        "meta_mean_motion_ddot": 0,
        "tle_line1": "1 28702U 05022A   25340.45968139 -.00000181  00000+0  00000+0 0  9996",
        "tle_line2": "2 28702   2.8026  81.3552 0002645 174.6698 256.2716  1.00271723 50042"
      },
      "geometry": {
        "type": "Point",
        "coordinates": [
          -33.036874123252204,
          -2.5608313321687493
        ]
      }
    },
    {
      "type": "Feature",
      "properties": {
        "norad_id": 29236,
        "name": "GALAXY 16 (G-16)",
        "group": "intelsat",
        "lat": 0.0009158133973585827,
        "lon": -43.33761624879479,
        "alt_km": 35778.83360391152,
        "timestamp": "2025-12-06T22:38:42.402410+00:00",
        "meta_object_name": "GALAXY 16 (G-16)",
        "meta_object_id": "2006-023A",
        "meta_epoch": "2025-12-06T10:56:19.428288",
        "meta_mean_motion": 1.00271146,
        "meta_eccentricity": 0.00030155,
        "meta_inclination": 0.0048,
        "meta_ra_of_asc_node": 275.3085,
        "meta_arg_of_pericenter": 347.0055,
        "meta_mean_anomaly": 238.2548,
        "meta_ephemeris_type": 0,
        "meta_classification_type": "U",
        "meta_norad_cat_id": 29236,
        "meta_element_set_no": 999,
        "meta_rev_at_epoch": 7104,
        "meta_bstar": 0,
        "meta_mean_motion_dot": -1.2e-06,
        "meta_mean_motion_ddot": 0,
        "tle_line1": "1 29236U 06023A   25340.45578042 -.00000120  00000+0  00000+0 0  9994",
        "tle_line2": "2 29236   0.0048 275.3085 0003015 347.0055 238.2548  1.00271146 71045"
      },
      "geometry": {
        "type": "Point",
        "coordinates": [
          -43.33761624879479,
          0.0009158133973585827
        ]
      }
    },
    {
      "type": "Feature",
      "properties": {
        "norad_id": 29494,
        "name": "DIRECTV 9S",
        "group": "intelsat",
        "lat": -1.510862356701634,
        "lon": -45.54921418256997,
        "alt_km": 35779.247736208694,
        "timestamp": "2025-12-06T22:38:42.402428+00:00",
        "meta_object_name": "DIRECTV 9S",
        "meta_object_id": "2006-043A",
        "meta_epoch": "2025-12-06T10:55:11.295840",
        "meta_mean_motion": 1.00270526,
        "meta_eccentricity": 0.00032552,
        "meta_inclination": 1.9232,
        "meta_ra_of_asc_node": 83.2743,
        "meta_arg_of_pericenter": 173.5807,
        "meta_mean_anomaly": 241.2272,
        "meta_ephemeris_type": 0,
        "meta_classification_type": "U",
        "meta_norad_cat_id": 29494,
        "meta_element_set_no": 999,
        "meta_rev_at_epoch": 4945,
        "meta_bstar": 0,
        "meta_mean_motion_dot": -1.07e-06,
        "meta_mean_motion_ddot": 0,
        "tle_line1": "1 29494U 06043A   25340.45499185 -.00000107  00000+0  00000+0 0  9997",
        "tle_line2": "2 29494   1.9232  83.2743 0003255 173.5807 241.2272  1.00270526 49455"
      },
      "geometry": {
        "type": "Point",
        "coordinates": [
          -45.54921418256997,
          -1.510862356701634
        ]
      }
    }
  ]
}